[{"OBJECT_NAME":"STARLINK-34966","OBJECT_ID":"2025-179Y","EPOCH":"2026-03-09T17:02:10.059360","MEAN_MOTION":15.0564903,"ECCENTRICITY":0.00017469,"INCLINATION":97.6025,"RA_OF_ASC_NODE":113.0202,"ARG_OF_PERICENTER":95.7705,"MEAN_ANOMALY":264.3721,"EPHEMERIS_TYPE":0,"CLASSIFICATION_TYPE":"U","NORAD_CAT_ID":65257,"ELEMENT_SET_NO":999,"REV_AT_EPOCH":3193,"BSTAR":3.0656634e-5,"MEAN_MOTION_DOT":3.82e-6,"MEAN_MOTION_DDOT":0},{"OBJECT_NAME":"PSLV DEB","OBJECT_ID":"2001-049CG","EPOCH":"2026-03-09T17:57:10.653408","MEAN_MOTION":15.10779615,"ECCENTRICITY":0.00259315,"INCLINATION":97.9011,"RA_OF_ASC_NODE":146.9612,"ARG_OF_PERICENTER":307.1678,"MEAN_ANOMALY":170.9563,"EPHEMERIS_TYPE":0,"CLASSIFICATION_TYPE":"U","NORAD_CAT_ID":27136,"ELEMENT_SET_NO":999,"REV_AT_EPOCH":32989,"BSTAR":0.00047952924,"MEAN_MOTION_DOT":7.956e-5,"MEAN_MOTION_DDOT":0}]
